NORAD_CAT_ID,OBJECT_NAME,OBJECT_TYPE,EPOCH,MEAN_MOTION,ECCENTRICITY,INCLINATION,RA_OF_ASC_NODE,ARG_OF_PERICENTER,MEAN_ANOMALY,BSTAR,MEAN_MOTION_DOT,MEAN_MOTION_DDOT,TLE_LINE0,TLE_LINE1,TLE_LINE2,SEMIMAJOR_AXIS,PERIOD,APOGEE,PERIGEE,DECAYED
50205.0,STARLINK-3260,PAYLOAD,2022-09-16 02:00:01,15.08854035,0.00018,53.2166,153.0896,44.9213,117.4375,-0.0012009,-0.00019357,0.0,0 STARLINK-3260,1 50205U 21125BB  22259.08334491 -.00019357  00000-0 -12009-2 0  9996,2 50205  53.2166 153.0896 0001800  44.9213 117.4375 15.08854035 44860,6917.837,95.437,540.948,538.457,0.0
50205.0,STARLINK-3260,PAYLOAD,2022-09-16 14:00:01,15.08802664,0.0001595,53.2166,150.843,49.6994,310.0625,0.00033159,4.988e-05,0.0,0 STARLINK-3260,1 50205U 21125BB  22259.58334491  .00004988  00000-0  33159-3 0  9993,2 50205  53.2166 150.8430 0001595  49.6994 310.0625 15.08802664  1300,6917.995,95.44,540.9630000000002,538.756,0.0
50205.0,STARLINK-3260,PAYLOAD,2022-09-16 22:00:00,15.08808104,0.0001713,53.2168,149.34799999999996,46.1414,325.1728,-0.00090328,-0.00014623,0.0,0 STARLINK-3260,1 50205U 21125BB  22259.91667824 -.00014623  00000-0 -90328-3 0  9999,2 50205  53.2168 149.3480 0001713  46.1414 325.1728 15.08808104 44999,6917.978,95.44,541.028,538.658,0.0
50205.0,STARLINK-3260,PAYLOAD,2022-09-17 14:00:01,15.08790639,0.0001571,53.2168,146.3541,50.2494,344.1797,0.0035708,0.00056923,0.0,0 STARLINK-3260,1 50205U 21125BB  22260.58334491  .00056923  00000-0  35708-2 0  9992,2 50205  53.2168 146.3541 0001571  50.2494 344.1797 15.08790639 45092,6918.031,95.441,540.9830000000002,538.809,0.0
50205.0,STARLINK-3260,PAYLOAD,2022-09-17 22:00:00,15.08834197,0.0001733999999999,53.2169,144.8594,47.2922,358.6964,-0.0010255999999999,-0.00016571,0.0,0 STARLINK-3260,1 50205U 21125BB  22260.91667824 -.00016571  00000-0 -10256-2 0  9996,2 50205  53.2169 144.8594 0001734  47.2922 358.6964 15.08834197  1307,6917.898,95.438,540.9630000000002,538.564,0.0
50205.0,STARLINK-3260,PAYLOAD,2022-09-18 06:00:00,15.08841723,0.0001751999999999,53.2166,143.363,44.585,12.982,-0.00017345,-3.048e-05,0.0,0 STARLINK-3260,1 50205U 21125BB  22261.25001157 -.00003048  00000-0 -17345-3 0  9997,2 50205  53.2166 143.3630 0001752  44.5850  12.9820 15.08841723 45198,6917.875,95.437,540.952,538.528,0.0
50205.0,STARLINK-3260,PAYLOAD,2022-09-18 14:00:01,15.08820858,0.0001578,53.2168,141.8652,52.3818,16.8492,0.0033796,0.00053882,0.0,0 STARLINK-3260,1 50205U 21125BB  22261.58335648  .00053882  00000-0  33796-2 0  9994,2 50205  53.2168 141.8652 0001578  52.3818  16.8492 15.08820858  1303,6917.939,95.439,540.896,538.712,0.0
50205.0,STARLINK-3260,PAYLOAD,2022-09-19 00:00:00,15.08848355,0.0001785,53.2169,139.9968,48.2097,125.4612,0.0010155,0.00015914,0.0,0 STARLINK-3260,1 50205U 21125BB  22262.00001157  .00015914  00000-0  10155-2 0  9995,2 50205  53.2169 139.9968 0001785  48.2097 125.4612 15.08848355  1308,6917.855,95.437,540.955,538.485,0.0
50205.0,STARLINK-3260,PAYLOAD,2022-09-19 06:00:02,15.08883616,0.000179,53.2164,138.8739,47.9497,44.486,-0.0028185,-0.00044919,0.0,0 STARLINK-3260,1 50205U 21125BB  22262.25002315 -.00044919  00000-0 -28185-2 0  9990,2 50205  53.2164 138.8739 0001790  47.9497  44.4860 15.08883616 45349,6917.746999999999,95.435,540.85,538.374,0.0
50205.0,STARLINK-3260,PAYLOAD,2022-09-19 14:00:01,15.08861095,0.0001554,53.2166,137.3763,53.6077,50.3979,-0.00046327,-7.658e-05,0.0,0 STARLINK-3260,1 50205U 21125BB  22262.58334491 -.00007658  00000-0 -46327-3 0  9997,2 50205  53.2166 137.3763 0001554  53.6077  50.3979 15.08861095  1300,6917.816,95.436,540.756,538.606,0.0
50205.0,STARLINK-3260,PAYLOAD,2022-09-19 22:00:00,15.08860018,0.0001701,53.2165,135.8817,48.3903,67.2325,-0.0021765,-0.00034779,0.0,0 STARLINK-3260,1 50205U 21125BB  22262.91667824 -.00034779  00000-0 -21765-2 0  9995,2 50205  53.2165 135.8817 0001701  48.3903  67.2325 15.08860018  1301,6917.819,95.436,540.861,538.507,0.0
50205.0,STARLINK-3260,PAYLOAD,2022-09-20 14:00:01,15.08821197,0.0001658,53.2164,132.8874,56.0902,82.7348,0.0024504,0.00038906,0.0,0 STARLINK-3260,1 50205U 21125BB  22263.58334491  .00038906  00000-0  24504-2 0  9998,2 50205  53.2164 132.8874 0001658  56.0902  82.7348 15.08821197  1308,6917.938,95.439,540.95,538.656,0.0
50205.0,STARLINK-3260,PAYLOAD,2022-09-20 22:00:01,15.08855108,0.0001796,53.2163,131.3928,50.6187,99.8583,-0.0025031999999999,-0.00039923,0.0,0 STARLINK-3260,1 50205U 21125BB  22263.91668981 -.00039923  00000-0 -25032-2 0  9998,2 50205  53.2163 131.3928 0001796  50.6187  99.8583 15.08855108  1308,6917.834,95.437,540.942,538.457,0.0
50205.0,STARLINK-3260,PAYLOAD,2022-09-21 08:00:01,15.08835845,0.0001664,53.2164,129.5213,49.0354,205.8733,-0.0012372,-0.00019922,0.0,0 STARLINK-3260,1 50205U 21125BB  22264.33334491 -.00019922  00000-0 -12372-2 0  9991,2 50205  53.2164 129.5213 0001664  49.0354 205.8733 15.08835845 45666,6917.893,95.438,540.909,538.607,0.0
50205.0,STARLINK-3260,PAYLOAD,2022-09-21 22:00:00,15.088339499999998,0.000183,53.2163,126.9038,48.9777,136.2015,1.2275e-05,-9.3e-07,0.0,0 STARLINK-3260,1 50205U 21125BB  22264.91667824 -.00000093  00000-0  12275-4 0  9996,2 50205  53.2163 126.9038 0001830  48.9777 136.2015 15.08833950 45747,6917.899,95.438,541.03,538.498,0.0
50205.0,STARLINK-3260,PAYLOAD,2022-09-22 00:00:00,15.08819716,0.000187,53.2165,126.53,47.9002,230.1798,0.0022511,0.000357,0.0,0 STARLINK-3260,1 50205U 21125BB  22265.00001157  .00035700  00000-0  22511-2 0  9992,2 50205  53.2165 126.5300 0001870  47.9002 230.1798 15.08819716  1301,6917.941999999999,95.439,541.101,538.514,0.0
50205.0,STARLINK-3260,PAYLOAD,2022-09-22 14:00:01,15.08838895,0.0001727,53.2166,123.9093,54.5421,153.8235,0.0018001999999999,0.00028478,0.0,0 STARLINK-3260,1 50205U 21125BB  22265.58334491  .00028478  00000-0  18002-2 0  9999,2 50205  53.2166 123.9093 0001727  54.5421 153.8235 15.08838895  1308,6917.884,95.438,540.943,538.554,0.0
50205.0,STARLINK-3260,PAYLOAD,2022-09-22 22:00:00,15.08854364,0.000187,53.2166,122.4147,48.0759,171.8995,-0.0023557,-0.00037599,0.0,0 STARLINK-3260,1 50205U 21125BB  22265.91667824 -.00037599  00000-0 -23557-2 0  9992,2 50205  53.2166 122.4147 0001870  48.0759 171.8995 15.08854364  1305,6917.8359999999975,95.437,540.995,538.408,0.0
50205.0,STARLINK-3260,PAYLOAD,2022-09-23 06:00:00,15.0884978,0.0001768,53.2166,120.9175,46.8293,184.7383,-0.0018695999999999,-0.00029928,0.0,0 STARLINK-3260,1 50205U 21125BB  22266.25001157 -.00029928  00000-0 -18696-2 0  9996,2 50205  53.2166 120.9175 0001768  46.8293 184.7383 15.08849780 45953,6917.85,95.437,540.939,538.492,0.0
50205.0,STARLINK-3260,PAYLOAD,2022-09-23 14:00:01,15.08833643,0.0001712,53.2168,119.4202,53.2483,189.9124,0.001723,0.00027235,0.0,0 STARLINK-3260,1 50205U 21125BB  22266.58334491  .00027235  00000-0  17230-2 0  9992,2 50205  53.2168 119.4202 0001712  53.2483 189.9124 15.08833643  1303,6917.9,95.438,540.9490000000002,538.58,0.0
50205.0,STARLINK-3260,PAYLOAD,2022-09-23 22:00:00,15.08840885,0.0001898,53.2168,117.9255,47.1584,207.6037,0.00080856,0.00012604,0.0,0 STARLINK-3260,1 50205U 21125BB  22266.91667824  .00012604  00000-0  80856-3 0  9997,2 50205  53.2168 117.9255 0001898  47.1584 207.6037 15.08840885  1300,6917.878000000002,95.437,541.056,538.43,0.0
50205.0,STARLINK-3260,PAYLOAD,2022-09-24 14:00:01,15.08829287,0.0001639,53.217,114.9308,51.3706,226.6357,0.0015087999999999,0.00023799,0.0,0 STARLINK-3260,1 50205U 21125BB  22267.58335648  .00023799  00000-0  15088-2 0  9998,2 50205  53.2170 114.9308 0001639  51.3706 226.6357 15.08829287  1304,6917.913000000001,95.438,540.9119999999998,538.644,0.0
50205.0,STARLINK-3260,PAYLOAD,2022-09-24 22:00:00,15.08778467,0.0001841999999999,53.2176,113.4346,41.0205,248.516,0.0054813999999999,0.0008789,0.0,0 STARLINK-3260,1 50205U 21125BB  22267.91667824  .00087890  00000-0  54814-2 0  9991,2 50205  53.2176 113.4346 0001842  41.0205 248.5160 15.08778467  1300,6918.068,95.441,541.2080000000002,538.659,0.0
50205.0,STARLINK-3260,PAYLOAD,2022-09-25 14:00:01,15.08827294,0.0001743,53.2168,110.4416,54.9452,257.7842,0.0012010999999999,0.00018873,0.0,0 STARLINK-3260,1 50205U 21125BB  22268.58334491  .00018873  00000-0  12011-2 0  9994,2 50205  53.2168 110.4416 0001743  54.9452 257.7842 15.08827294 46304,6917.919,95.438,540.99,538.578,0.0
50205.0,STARLINK-3260,PAYLOAD,2022-09-26 00:00:00,15.08810162,0.0001909999999999,53.2165,108.573,47.9502,9.2634,0.0029601999999999,0.000471,0.0,0 STARLINK-3260,1 50205U 21125BB  22269.00001157  .00047100  00000-0  29602-2 0  9991,2 50205  53.2165 108.5730 0001910  47.9502   9.2634 15.08810162  1308,6917.972,95.439,541.158,538.515,0.0
50205.0,STARLINK-3260,PAYLOAD,2022-09-26 10:00:00,15.08818067,0.0001718,53.2161,106.7004,54.0637,107.6361,0.002801,0.00044545,0.0,0 STARLINK-3260,1 50205U 21125BB  22269.41667824  .00044545  00000-0  28010-2 0  9997,2 50205  53.2161 106.7004 0001718  54.0637 107.6361 15.08818067 46426,6917.946999999999,95.439,541.001,538.624,0.0
50205.0,STARLINK-3260,PAYLOAD,2022-09-26 16:00:00,15.08859145,0.0001781,53.2163,105.5788,54.4216,25.9583,-0.001616,-0.00025928,0.0,0 STARLINK-3260,1 50205U 21125BB  22269.66667824 -.00025928  00000-0 -16160-2 0  9993,2 50205  53.2163 105.5788 0001781  54.4216  25.9583 15.08859145  1309,6917.821999999999,95.436,540.919,538.455,0.0
50205.0,STARLINK-3260,PAYLOAD,2022-09-26 22:00:00,15.08844904,0.0001885999999999,53.2162,104.4576,49.5771,309.5121,-0.0011719,-0.00018893,0.0,0 STARLINK-3260,1 50205U 21125BB  22269.91667824 -.00018893  00000-0 -11719-2 0  9999,2 50205  53.2162 104.4576 0001886  49.5771 309.5121 15.08844904 46505,6917.865,95.437,541.035,538.4259999999998,0.0
50205.0,STARLINK-3260,PAYLOAD,2022-09-27 00:00:00,15.08832812,0.000186,53.2159,104.0835,47.8036,44.1889,-5.2664e-05,-1.126e-05,0.0,0 STARLINK-3260,1 50205U 21125BB  22270.00001157 -.00001126  00000-0 -52664-4 0  9999,2 50205  53.2159 104.0835 0001860  47.8036  44.1889 15.08832812  1309,6917.901999999999,95.438,541.054,538.481,0.0
